{
  "type": "FeatureCollection",
  "features": [
    {
      "type": "Feature",
      "properties": {
        "norad_id": 34056,
        "name": "COSMOS 2251 DEB",
        "group": "cosmos-2251-debris",
        "lat": 55.85505366002891,
        "lon": -119.37114822233931,
        "alt_km": 730.981223549481,
        "timestamp": "2025-12-07T14:37:05.597209+00:00",
        "meta_object_name": "COSMOS 2251 DEB",
        "meta_object_id": "1993-036JT",
        "meta_epoch": "2025-12-06T18:29:29.778720",
        "meta_mean_motion": 14.20516093,
        "meta_eccentricity": 0.01243716,
        "meta_inclination": 74.0602,
        "meta_ra_of_asc_node": 87.0505,
        "meta_arg_of_pericenter": 136.4355,
        "meta_mean_anomaly": 17.6198,
        "meta_ephemeris_type": 0,
        "meta_classification_type": "U",
        "meta_norad_cat_id": 34056,
        "meta_element_set_no": 999,
        "meta_rev_at_epoch": 86326,
        "meta_bstar": 0.0020245983,
        "meta_mean_motion_dot": 4.679e-05,
        "meta_mean_motion_ddot": 0,
        "tle_line1": "1 34056U 93036JT  25340.77048355  .00004679  00000+0  20246-2 0  9993",
        "tle_line2": "2 34056  74.0602  87.0505 0124371 136.4355  17.6198 14.20516093863267"
      },
      "geometry": {
        "type": "Point",
        "coordinates": [
          -119.37114822233931,
          55.85505366002891
        ]
      }
    },
    {
      "type": "Feature",
      "properties": {
        "norad_id": 34058,
        "name": "COSMOS 2251 DEB",
        "group": "cosmos-2251-debris",
        "lat": 19.261258941309407,
        "lon": -167.79102829737764,
        "alt_km": 1316.6815331197404,
        "timestamp": "2025-12-07T14:37:05.597219+00:00",
        "meta_object_name": "COSMOS 2251 DEB",
        "meta_object_id": "1993-036JV",
        "meta_epoch": "2025-12-06T23:10:03.508032",
        "meta_mean_motion": 13.56063666,
        "meta_eccentricity": 0.03782096,
        "meta_inclination": 73.932,
        "meta_ra_of_asc_node": 187.4722,
        "meta_arg_of_pericenter": 183.8122,
        "meta_mean_anomaly": 296.0751,
        "meta_ephemeris_type": 0,
        "meta_classification_type": "U",
        "meta_norad_cat_id": 34058,
        "meta_element_set_no": 999,
        "meta_rev_at_epoch": 83064,
        "meta_bstar": 0.00089086956,
        "meta_mean_motion_dot": 9.68e-06,
        "meta_mean_motion_ddot": 0,
        "tle_line1": "1 34058U 93036JV  25340.96531838  .00000968  00000+0  89087-3 0  9995",
        "tle_line2": "2 34058  73.9320 187.4722 0378209 183.8122 296.0751 13.56063666830644"
      },
      "geometry": {
        "type": "Point",
        "coordinates": [
          -167.79102829737764,
          19.261258941309407
        ]
      }
    },
    {
      "type": "Feature",
      "properties": {
        "norad_id": 34059,
        "name": "COSMOS 2251 DEB",
        "group": "cosmos-2251-debris",
        "lat": -68.14938217982368,
        "lon": 61.49954730025841,
        "alt_km": 710.4417582870983,
        "timestamp": "2025-12-07T14:37:05.597229+00:00",
        "meta_object_name": "COSMOS 2251 DEB",
        "meta_object_id": "1993-036JW",
        "meta_epoch": "2025-12-06T23:06:02.265408",
        "meta_mean_motion": 14.5289623,
        "meta_eccentricity": 0.00188309,
        "meta_inclination": 74.0374,
        "meta_ra_of_asc_node": 197.1747,
        "meta_arg_of_pericenter": 275.0146,
        "meta_mean_anomaly": 199.4688,
        "meta_ephemeris_type": 0,
        "meta_classification_type": "U",
        "meta_norad_cat_id": 34059,
        "meta_element_set_no": 999,
        "meta_rev_at_epoch": 88375,
        "meta_bstar": 0.0011290889,
        "meta_mean_motion_dot": 4.634e-05,
        "meta_mean_motion_ddot": 0,
        "tle_line1": "1 34059U 93036JW  25340.96252622  .00004634  00000+0  11291-2 0  9992",
        "tle_line2": "2 34059  74.0374 197.1747 0018830 275.0146 199.4688 14.52896230883755"
      },
      "geometry": {
        "type": "Point",
        "coordinates": [
          61.49954730025841,
          -68.14938217982368
        ]
      }
    },
    {
      "type": "Feature",
      "properties": {
        "norad_id": 34061,
        "name": "COSMOS 2251 DEB",
        "group": "cosmos-2251-debris",
        "lat": 61.274120529228675,
        "lon": 61.394754096950166,
        "alt_km": 759.05905613298,
        "timestamp": "2025-12-07T14:37:05.597239+00:00",
        "meta_object_name": "COSMOS 2251 DEB",
        "meta_object_id": "1993-036JY",
        "meta_epoch": "2025-12-06T21:42:43.636608",
        "meta_mean_motion": 14.40336302,
        "meta_eccentricity": 0.00202876,
        "meta_inclination": 74.0393,
        "meta_ra_of_asc_node": 274.1745,
        "meta_arg_of_pericenter": 352.0181,
        "meta_mean_anomaly": 70.8441,
        "meta_ephemeris_type": 0,
        "meta_classification_type": "U",
        "meta_norad_cat_id": 34061,
        "meta_element_set_no": 999,
        "meta_rev_at_epoch": 88096,
        "meta_bstar": 0.00065254851,
        "meta_mean_motion_dot": 2.048e-05,
        "meta_mean_motion_ddot": 0,
        "tle_line1": "1 34061U 93036JY  25340.90467172  .00002048  00000+0  65255-3 0  9994",
        "tle_line2": "2 34061  74.0393 274.1745 0020287 352.0181  70.8441 14.40336302880962"
      },
      "geometry": {
        "type": "Point",
        "coordinates": [
          61.394754096950166,
          61.274120529228675
        ]
      }
    },
    {
      "type": "Feature",
      "properties": {
        "norad_id": 34062,
        "name": "COSMOS 2251 DEB",
        "group": "cosmos-2251-debris",
        "lat": -65.13220858861581,
        "lon": 6.290228098191288,
        "alt_km": 592.2998679225275,
        "timestamp": "2025-12-07T14:37:05.597249+00:00",
        "meta_object_name": "COSMOS 2251 DEB",
        "meta_object_id": "1993-036JZ",
        "meta_epoch": "2025-12-06T18:05:55.330368",
        "meta_mean_motion": 14.78294095,
        "meta_eccentricity": 0.00757546,
        "meta_inclination": 74.0277,
        "meta_ra_of_asc_node": 149.8045,
        "meta_arg_of_pericenter": 229.9952,
        "meta_mean_anomaly": 152.053,
        "meta_ephemeris_type": 0,
        "meta_classification_type": "U",
        "meta_norad_cat_id": 34062,
        "meta_element_set_no": 999,
        "meta_rev_at_epoch": 88507,
        "meta_bstar": 0.0044741975,
        "meta_mean_motion_dot": 0.00034244,
        "meta_mean_motion_ddot": 0,
        "tle_line1": "1 34062U 93036JZ  25340.75411262  .00034244  00000+0  44742-2 0  9997",
        "tle_line2": "2 34062  74.0277 149.8045 0075754 229.9952 152.0530 14.78294095885074"
      },
      "geometry": {
        "type": "Point",
        "coordinates": [
          6.290228098191288,
          -65.13220858861581
        ]
      }
    },
    {
      "type": "Feature",
      "properties": {
        "norad_id": 34064,
        "name": "COSMOS 2251 DEB",
        "group": "cosmos-2251-debris",
        "lat": 48.58800304662778,
        "lon": -60.671516191472975,
        "alt_km": 739.2471153186098,
        "timestamp": "2025-12-07T14:37:05.597259+00:00",
        "meta_object_name": "COSMOS 2251 DEB",
        "meta_object_id": "1993-036KB",
        "meta_epoch": "2025-12-06T22:02:17.352096",
        "meta_mean_motion": 14.42304548,
        "meta_eccentricity": 0.00219362,
        "meta_inclination": 74.0332,
        "meta_ra_of_asc_node": 281.6674,
        "meta_arg_of_pericenter": 348.8786,
        "meta_mean_anomaly": 76.6517,
        "meta_ephemeris_type": 0,
        "meta_classification_type": "U",
        "meta_norad_cat_id": 34064,
        "meta_element_set_no": 999,
        "meta_rev_at_epoch": 88058,
        "meta_bstar": 0.00097842102,
        "meta_mean_motion_dot": 3.214e-05,
        "meta_mean_motion_ddot": 0,
        "tle_line1": "1 34064U 93036KB  25340.91825639  .00003214  00000+0  97842-3 0  9997",
        "tle_line2": "2 34064  74.0332 281.6674 0021936 348.8786  76.6517 14.42304548880583"
      },
      "geometry": {
        "type": "Point",
        "coordinates": [
          -60.671516191472975,
          48.58800304662778
        ]
      }
    },
    {
      "type": "Feature",
      "properties": {
        "norad_id": 34065,
        "name": "COSMOS 2251 DEB",
        "group": "cosmos-2251-debris",
        "lat": 35.088352742224444,
        "lon": 75.97000807464764,
        "alt_km": 770.6324589266205,
        "timestamp": "2025-12-07T14:37:05.597269+00:00",
        "meta_object_name": "COSMOS 2251 DEB",
        "meta_object_id": "1993-036KC",
        "meta_epoch": "2025-12-06T21:32:39.361056",
        "meta_mean_motion": 14.38052215,
        "meta_eccentricity": 0.00160954,
        "meta_inclination": 74.0356,
        "meta_ra_of_asc_node": 268.8811,
        "meta_arg_of_pericenter": 7.6881,
        "meta_mean_anomaly": 53.8739,
        "meta_ephemeris_type": 0,
        "meta_classification_type": "U",
        "meta_norad_cat_id": 34065,
        "meta_element_set_no": 999,
        "meta_rev_at_epoch": 88121,
        "meta_bstar": 0.000313122,
        "meta_mean_motion_dot": 9.23e-06,
        "meta_mean_motion_ddot": 0,
        "tle_line1": "1 34065U 93036KC  25340.89767779  .00000923  00000+0  31312-3 0  9999",
        "tle_line2": "2 34065  74.0356 268.8811 0016095   7.6881  53.8739 14.38052215881216"
      },
      "geometry": {
        "type": "Point",
        "coordinates": [
          75.97000807464764,
          35.088352742224444
        ]
      }
    }
  ]
}